[{"OBJECT_NAME":"KUIPER-00166","OBJECT_ID":"2025-217T","EPOCH":"2026-03-09T03:56:58.865280","MEAN_MOTION":14.79887824,"ECCENTRICITY":5.071e-5,"INCLINATION":51.9049,"RA_OF_ASC_NODE":25.4437,"ARG_OF_PERICENTER":77.1407,"MEAN_ANOMALY":282.9612,"EPHEMERIS_TYPE":0,"CLASSIFICATION_TYPE":"U","NORAD_CAT_ID":65779,"ELEMENT_SET_NO":999,"REV_AT_EPOCH":2507,"BSTAR":-0.00060281618,"MEAN_MOTION_DOT":-4.808e-5,"MEAN_MOTION_DDOT":0},{"OBJECT_NAME":"COSMOS 2251 DEB","OBJECT_ID":"1993-036GJ","EPOCH":"2026-03-09T09:01:45.653376","MEAN_MOTION":14.85640733,"ECCENTRICITY":0.00467791,"INCLINATION":73.9175,"RA_OF_ASC_NODE":57.6751,"ARG_OF_PERICENTER":289.0388,"MEAN_ANOMALY":70.5727,"EPHEMERIS_TYPE":0,"CLASSIFICATION_TYPE":"U","NORAD_CAT_ID":33999,"ELEMENT_SET_NO":999,"REV_AT_EPOCH":90536,"BSTAR":0.001837424,"MEAN_MOTION_DOT":0.00016238,"MEAN_MOTION_DDOT":0}]
